OBJECT_NAME,OBJECT_ID,EPOCH,MEAN_MOTION,ECCENTRICITY,INCLINATION,RA_OF_ASC_NODE,ARG_OF_PERICENTER,MEAN_ANOMALY,EPHEMERIS_TYPE,CLASSIFICATION_TYPE,NORAD_CAT_ID,ELEMENT_SET_NO,REV_AT_EPOCH,BSTAR,MEAN_MOTION_DOT,MEAN_MOTION_DDOT
IRIDIUM 33 DEB,1997-051ACG,2024-07-07T02:59:12.447168,14.27821918,.0119651,86.3109,330.7293,99.7767,261.6961,0,U,46974,999,49989,.37719E-2,.10089E-3,0
IRIDIUM 33 DEB,1997-051ACM,2024-07-04T13:21:26.858304,14.51621752,.0053307,86.3497,284.9269,248.1639,111.3891,0,U,46979,999,27699,.32282E-2,.13207E-3,0
