IRIDIUM 33 DEB
1 46979U 97051ACM 24186.55656086  .00013207  00000-0  32282-2 0  9991
2 46979  86.3497 284.9269 0053307 248.1639 111.3891 14.51621752276996
IRIDIUM 33 DEB
1 46974U 97051ACG 24189.12444962  .00010089  00000-0  37719-2 0  9995
2 46974  86.3109 330.7293 0119651  99.7767 261.6961 14.27821918499897
